start=new Date('2022-12-01T00:00:00.000Z').valueOf();
sats=[{"CENTER_NAME":"EARTH","RA_OF_ASC_NODE":"178.0747","TIME_SYSTEM":"UTC","PERIOD":"95.592","REV_AT_EPOCH":"9755","MEAN_ANOMALY":"266.4491","OBJECT_NAME":"STARLINK-2179","INCLINATION":"53.0548","OBJECT_ID":"2021-017AR","COUNTRY_CODE":"US","CLASSIFICATION_TYPE":"U","OBJECT_TYPE":"PAYLOAD","REF_FRAME":"TEME","NORAD_CAT_ID":"47761","ELEMENT_SET_NO":"999","APOAPSIS":"548.264","SEMIMAJOR_AXIS":"6925.365","MEAN_MOTION_DDOT":"0.0000000000000","EPOCH":"2022-11-30T06:28:13.886688","TLE_LINE1":"1 47761U 21017AR  22334.26960517  .00000241  00000-0  35111-4 0  9998","GP_ID":"219174110","RCS_SIZE":"LARGE","FILE":"3675646","PERIAPSIS":"546.196","MEAN_MOTION":"15.06394547","SITE":"AFETR","ECCENTRICITY":"0.00014930","LAUNCH_DATE":"2021-03-04","DECAY_DATE":null,"EPHEMERIS_TYPE":"0","MEAN_ELEMENT_THEORY":"SGP4","TLE_LINE2":"2 47761  53.0548 178.0747 0001493  93.6669 266.4491 15.06394547 97554","MEAN_MOTION_DOT":"0.00000241","ARG_OF_PERICENTER":"93.6669","BSTAR":"0.00003511100000"},{"DECAY_DATE":null,"LAUNCH_DATE":"2021-03-04","ECCENTRICITY":"0.00023350","SITE":"AFETR","BSTAR":"0.00009980600000","MEAN_MOTION_DOT":"0.00001205","ARG_OF_PERICENTER":"46.4162","TLE_LINE2":"2 47762  53.0538 190.8885 0002335  46.4162 313.7020 15.06389686 97438","MEAN_ELEMENT_THEORY":"SGP4","EPHEMERIS_TYPE":"0","FILE":"3676429","RCS_SIZE":"LARGE","TLE_LINE1":"1 47762U 21017AS  22334.76029407  .00001205  00000-0  99806-4 0  9990","GP_ID":"219215155","MEAN_MOTION":"15.06389686","PERIAPSIS":"545.628","ELEMENT_SET_NO":"999","NORAD_CAT_ID":"47762","REF_FRAME":"TEME","OBJECT_TYPE":"PAYLOAD","CLASSIFICATION_TYPE":"U","EPOCH":"2022-11-30T18:14:49.407648","MEAN_MOTION_DDOT":"0.0000000000000","SEMIMAJOR_AXIS":"6925.380","APOAPSIS":"548.862","MEAN_ANOMALY":"313.7020","TIME_SYSTEM":"UTC","RA_OF_ASC_NODE":"190.8885","CENTER_NAME":"EARTH","REV_AT_EPOCH":"9743","PERIOD":"95.593","INCLINATION":"53.0538","OBJECT_ID":"2021-017AS","COUNTRY_CODE":"US","OBJECT_NAME":"STARLINK-2180"},{"APOAPSIS":"548.497","SEMIMAJOR_AXIS":"6925.325","MEAN_MOTION_DDOT":"0.0000000000000","EPOCH":"2022-11-30T20:12:56.290752","CLASSIFICATION_TYPE":"U","OBJECT_TYPE":"PAYLOAD","REF_FRAME":"TEME","NORAD_CAT_ID":"47763","ELEMENT_SET_NO":"999","OBJECT_NAME":"STARLINK-2181","INCLINATION":"53.0530","COUNTRY_CODE":"US","OBJECT_ID":"2021-017AT","RA_OF_ASC_NODE":"180.4971","CENTER_NAME":"EARTH","TIME_SYSTEM":"UTC","REV_AT_EPOCH":"9756","PERIOD":"95.592","MEAN_ANOMALY":"312.3840","EPHEMERIS_TYPE":"0","MEAN_ELEMENT_THEORY":"SGP4","TLE_LINE2":"2 47763  53.0530 180.4971 0001888  47.7309 312.3840 15.06407784 97560","MEAN_MOTION_DOT":"0.00002403","BSTAR":"0.00018013000000","ARG_OF_PERICENTER":"47.7309","SITE":"AFETR","ECCENTRICITY":"0.00018880","LAUNCH_DATE":"2021-03-04","DECAY_DATE":null,"PERIAPSIS":"545.882","MEAN_MOTION":"15.06407784","TLE_LINE1":"1 47763U 21017AT  22334.84231818  .00002403  00000-0  18013-3 0  9992","GP_ID":"219213915","FILE":"3676429","RCS_SIZE":"LARGE"},{"PERIAPSIS":"546.054","MEAN_MOTION":"15.06392723","GP_ID":"219214665","TLE_LINE1":"1 47764U 21017AU  22334.61285234  .00000465  00000-0  50117-4 0  9997","FILE":"3676429","RCS_SIZE":"LARGE","MEAN_ELEMENT_THEORY":"SGP4","EPHEMERIS_TYPE":"0","MEAN_MOTION_DOT":"0.00000465","BSTAR":"0.00005011700000","ARG_OF_PERICENTER":"63.9535","TLE_LINE2":"2 47764  53.0532 191.5312 0001706  63.9535 296.1629 15.06392723 97442","ECCENTRICITY":"0.00017060","SITE":"AFETR","DECAY_DATE":null,"LAUNCH_DATE":"2021-03-04","OBJECT_NAME":"STARLINK-2182","OBJECT_ID":"2021-017AU","COUNTRY_CODE":"US","INCLINATION":"53.0532","PERIOD":"95.593","REV_AT_EPOCH":"9744","CENTER_NAME":"EARTH","RA_OF_ASC_NODE":"191.5312","TIME_SYSTEM":"UTC","MEAN_ANOMALY":"296.1629","MEAN_MOTION_DDOT":"0.0000000000000","SEMIMAJOR_AXIS":"6925.371","APOAPSIS":"548.417","EPOCH":"2022-11-30T14:42:30.442176","CLASSIFICATION_TYPE":"U","NORAD_CAT_ID":"47764","ELEMENT_SET_NO":"999","OBJECT_TYPE":"PAYLOAD","REF_FRAME":"TEME"},{"NORAD_CAT_ID":"47766","ELEMENT_SET_NO":"999","REF_FRAME":"TEME","OBJECT_TYPE":"PAYLOAD","CLASSIFICATION_TYPE":"U","EPOCH":"2022-11-30T18:18:46.186848","MEAN_MOTION_DDOT":"0.0000000000000","SEMIMAJOR_AXIS":"6925.389","APOAPSIS":"548.614","MEAN_ANOMALY":"306.1439","RA_OF_ASC_NODE":"190.8523","CENTER_NAME":"EARTH","TIME_SYSTEM":"UTC","REV_AT_EPOCH":"9740","PERIOD":"95.593","INCLINATION":"53.0550","OBJECT_ID":"2021-017AW","COUNTRY_CODE":"US","OBJECT_NAME":"STARLINK-2184","DECAY_DATE":null,"LAUNCH_DATE":"2021-03-04","ECCENTRICITY":"0.00019630","SITE":"AFETR","BSTAR":"0.00006798400000","MEAN_MOTION_DOT":"0.00000731","ARG_OF_PERICENTER":"53.9732","TLE_LINE2":"2 47766  53.0550 190.8523 0001963  53.9732 306.1439 15.06386710 97409","MEAN_ELEMENT_THEORY":"SGP4","EPHEMERIS_TYPE":"0","RCS_SIZE":"LARGE","FILE":"3676429","GP_ID":"219215417","TLE_LINE1":"1 47766U 21017AW  22334.76303457  .00000731  00000-0  67984-4 0  9999","MEAN_MOTION":"15.06386710","PERIAPSIS":"545.895"},{"MEAN_ANOMALY":"294.5215","RA_OF_ASC_NODE":"175.4461","TIME_SYSTEM":"UTC","CENTER_NAME":"EARTH","REV_AT_EPOCH":"9769","PERIOD":"95.592","INCLINATION":"53.0544","COUNTRY_CODE":"US","OBJECT_ID":"2021-017AX","OBJECT_NAME":"STARLINK-2185","REF_FRAME":"TEME","OBJECT_TYPE":"PAYLOAD","ELEMENT_SET_NO":"999","NORAD_CAT_ID":"47767","CLASSIFICATION_TYPE":"U","EPOCH":"2022-11-30T20:32:09.221856","APOAPSIS":"548.457","MEAN_MOTION_DDOT":"0.0000000000000","SEMIMAJOR_AXIS":"6925.364","FILE":"3676429","RCS_SIZE":"LARGE","TLE_LINE1":"1 47767U 21017AX  22334.85566229  .00000499  00000-0  52437-4 0  9996","GP_ID":"219215656","MEAN_MOTION":"15.06394849","PERIAPSIS":"546.001","LAUNCH_DATE":"2021-03-04","DECAY_DATE":null,"SITE":"AFETR","ECCENTRICITY":"0.00017730","TLE_LINE2":"2 47767  53.0544 175.4461 0001773  65.5958 294.5215 15.06394849 97696","MEAN_MOTION_DOT":"0.00000499","ARG_OF_PERICENTER":"65.5958","BSTAR":"0.00005243700000","EPHEMERIS_TYPE":"0","MEAN_ELEMENT_THEORY":"SGP4"},{"CLASSIFICATION_TYPE":"U","OBJECT_TYPE":"PAYLOAD","REF_FRAME":"TEME","NORAD_CAT_ID":"47768","ELEMENT_SET_NO":"999","APOAPSIS":"548.563","MEAN_MOTION_DDOT":"0.0000000000000","SEMIMAJOR_AXIS":"6925.358","EPOCH":"2022-11-30T00:49:15.005280","RA_OF_ASC_NODE":"194.5270","TIME_SYSTEM":"UTC","CENTER_NAME":"EARTH","REV_AT_EPOCH":"9732","PERIOD":"95.592","MEAN_ANOMALY":"298.7794","OBJECT_NAME":"STARLINK-2189","INCLINATION":"53.0532","OBJECT_ID":"2021-017AY","COUNTRY_CODE":"US","SITE":"AFETR","ECCENTRICITY":"0.00019350","LAUNCH_DATE":"2021-03-04","DECAY_DATE":null,"EPHEMERIS_TYPE":"0","MEAN_ELEMENT_THEORY":"SGP4","TLE_LINE2":"2 47768  53.0532 194.5270 0001935  61.3389 298.7794 15.06396889 97320","BSTAR":"0.00004691800000","MEAN_MOTION_DOT":"0.00000417","ARG_OF_PERICENTER":"61.3389","TLE_LINE1":"1 47768U 21017AY  22334.03420145  .00000417  00000-0  46918-4 0  9990","GP_ID":"219173108","FILE":"3675646","RCS_SIZE":"LARGE","PERIAPSIS":"545.883","MEAN_MOTION":"15.06396889"},{"FILE":"3676429","RCS_SIZE":"LARGE","TLE_LINE1":"1 47769U 21017AZ  22334.77272180  .00001375  00000-0  11121-3 0  9997","GP_ID":"219214165","MEAN_MOTION":"15.06400943","PERIAPSIS":"545.962","DECAY_DATE":null,"LAUNCH_DATE":"2021-03-04","ECCENTRICITY":"0.00018030","SITE":"AFETR","MEAN_MOTION_DOT":"0.00001375","BSTAR":"0.00011121000000","ARG_OF_PERICENTER":"64.7589","TLE_LINE2":"2 47769  53.0528 155.8183 0001803  64.7589 295.3586 15.06400943 97950","MEAN_ELEMENT_THEORY":"SGP4","EPHEMERIS_TYPE":"0","MEAN_ANOMALY":"295.3586","PERIOD":"95.592","REV_AT_EPOCH":"9795","TIME_SYSTEM":"UTC","RA_OF_ASC_NODE":"155.8183","CENTER_NAME":"EARTH","OBJECT_ID":"2021-017AZ","COUNTRY_CODE":"US","INCLINATION":"53.0528","OBJECT_NAME":"STARLINK-2192","ELEMENT_SET_NO":"999","NORAD_CAT_ID":"47769","OBJECT_TYPE":"PAYLOAD","REF_FRAME":"TEME","CLASSIFICATION_TYPE":"U","EPOCH":"2022-11-30T18:32:43.163520","SEMIMAJOR_AXIS":"6925.346","MEAN_MOTION_DDOT":"0.0000000000000","APOAPSIS":"548.459"},{"APOAPSIS":"548.639","SEMIMAJOR_AXIS":"6925.378","MEAN_MOTION_DDOT":"0.0000000000000","EPOCH":"2022-11-30T20:19:33.418848","CLASSIFICATION_TYPE":"U","REF_FRAME":"TEME","OBJECT_TYPE":"PAYLOAD","NORAD_CAT_ID":"47770","ELEMENT_SET_NO":"999","OBJECT_NAME":"STARLINK-2193","INCLINATION":"53.0559","COUNTRY_CODE":"US","OBJECT_ID":"2021-017BA","RA_OF_ASC_NODE":"170.4629","CENTER_NAME":"EARTH","TIME_SYSTEM":"UTC","PERIOD":"95.593","REV_AT_EPOCH":"9773","MEAN_ANOMALY":"297.1268","EPHEMERIS_TYPE":"0","MEAN_ELEMENT_THEORY":"SGP4","TLE_LINE2":"2 47770  53.0559 170.4629 0002016  62.9927 297.1268 15.06390483 97737","MEAN_MOTION_DOT":"-0.00000070","ARG_OF_PERICENTER":"62.9927","BSTAR":"0.00001423000000","SITE":"AFETR","ECCENTRICITY":"0.00020160","LAUNCH_DATE":"2021-03-04","DECAY_DATE":null,"PERIAPSIS":"545.847","MEAN_MOTION":"15.06390483","TLE_LINE1":"1 47770U 21017BA  22334.84691457 -.00000070  00000-0  14230-4 0  9996","GP_ID":"219214917","FILE":"3676429","RCS_SIZE":"LARGE"},{"LAUNCH_DATE":"2021-03-04","DECAY_DATE":null,"SITE":"AFETR","ECCENTRICITY":"0.00018500","TLE_LINE2":"2 47771  53.0533 171.6251 0001850  64.3752 295.7428 15.06394222 97042","MEAN_MOTION_DOT":"0.00000561","ARG_OF_PERICENTER":"64.3752","BSTAR":"0.00005654300000","EPHEMERIS_TYPE":"0","MEAN_ELEMENT_THEORY":"SGP4","FILE":"3675997","RCS_SIZE":"LARGE","GP_ID":"219183515","TLE_LINE1":"1 47771U 21017BB  22334.59258031  .00000561  00000-0  56543-4 0  9993","MEAN_MOTION":"15.06394222","PERIAPSIS":"545.950","REF_FRAME":"TEME","OBJECT_TYPE":"PAYLOAD","ELEMENT_SET_NO":"999","NORAD_CAT_ID":"47771","CLASSIFICATION_TYPE":"U","EPOCH":"2022-11-30T14:13:18.938784","APOAPSIS":"548.512","MEAN_MOTION_DDOT":"0.0000000000000","SEMIMAJOR_AXIS":"6925.366","MEAN_ANOMALY":"295.7428","REV_AT_EPOCH":"9704","PERIOD":"95.593","TIME_SYSTEM":"UTC","RA_OF_ASC_NODE":"171.6251","CENTER_NAME":"EARTH","COUNTRY_CODE":"US","OBJECT_ID":"2021-017BB","INCLINATION":"53.0533","OBJECT_NAME":"STARLINK-2194"}];
